{
    "satellites": [
        {
            "name": "starlink313",
            "title": "Starlink-313 (G11-12)",
            "tle": [
                "1 70617C 25240AD  25306.76229167 -.01626300  00000+0 -61342-2 0  3069",
                "2 70617  53.1519 297.5512 0000656  84.4517 252.9339 15.88672939    16"
            ],
            "stdMag": 5,
            "noradId": "70617",
            "tleUrl": "http://celestrak.org/NORAD/elements/supplemental/sup-gp.php?FILE=starlink&FORMAT=tle",
            "launchDate": "2025-10-25T14:20:50.000Z",
            "active": true,
            "batch": [
                {
                    "noradId": "70617",
                    "tle": [
                        "1 70617C 25240AD  25306.76229167 -.01626300  00000+0 -61342-2 0  3069",
                        "2 70617  53.1519 297.5512 0000656  84.4517 252.9339 15.88672939    16"
                    ]
                },
                {
                    "noradId": "70612",
                    "tle": [
                        "1 70612C 25240Y   25306.76159722 -.01602500  00000+0 -60759-2 0  3060",
                        "2 70612  53.1521 297.5667 0000689  89.0452 238.5678 15.88543264    14"
                    ]
                },
                {
                    "noradId": "70614",
                    "tle": [
                        "1 70614C 25240AA  25306.76923611 -.01608000  00000+0 -60936-2 0  3066",
                        "2 70614  53.1523 297.5239 0000597  96.8552 276.4344 15.88559663    19"
                    ]
                },
                {
                    "noradId": "70616",
                    "tle": [
                        "1 70616C 25240AC  25306.76368056 -.01594800  00000+0 -60592-2 0  3064",
                        "2 70616  53.1520 297.5599 0000630  90.3449 247.2905 15.88492643    12"
                    ]
                },
                {
                    "noradId": "70613",
                    "tle": [
                        "1 70613C 25240Z   25306.76020833 -.01591100  00000+0 -60545-2 0  3067",
                        "2 70613  53.1520 297.5808 0000672 100.2027 215.9388 15.88458210    10"
                    ]
                },
                {
                    "noradId": "70615",
                    "tle": [
                        "1 70615C 25240AB  25306.76159722 -.01616700  00000+0 -61081-2 0  3069",
                        "2 70615  53.1521 297.5585 0000665  86.8276 244.5717 15.88629542    14"
                    ]
                },
                {
                    "noradId": "70611",
                    "tle": [
                        "1 70611C 25240X   25306.75881944 -.01577500  00000+0 -60215-2 0  3064",
                        "2 70611  53.1519 297.5960 0000641  95.6555 208.6114 15.88379771    14"
                    ]
                },
                {
                    "noradId": "70610",
                    "tle": [
                        "1 70610C 25240W   25306.76020833 -.01581400  00000+0 -60263-2 0  3063",
                        "2 70610  53.1522 297.5855 0000665  98.9018 215.0244 15.88417759    11"
                    ]
                },
                {
                    "noradId": "70609",
                    "tle": [
                        "1 70609C 25240V   25306.76368056 -.01557900  00000+0 -59708-2 0  3063",
                        "2 70609  53.1521 297.5802 0000583  86.9745 241.0071 15.88277160    10"
                    ]
                },
                {
                    "noradId": "70608",
                    "tle": [
                        "1 70608C 25240U   25306.76368056 -.01565200  00000+0 -59883-2 0  3068",
                        "2 70608  53.1522 297.5761 0000697  88.6183 241.2497 15.88319941    13"
                    ]
                },
                {
                    "noradId": "70607",
                    "tle": [
                        "1 70607C 25240T   25306.76368056 -.01552200  00000+0 -59596-2 0  3064",
                        "2 70607  53.1522 297.5840 0000660  97.8859 228.2498 15.88235204    17"
                    ]
                },
                {
                    "noradId": "70606",
                    "tle": [
                        "1 70606C 25240S   25306.76298611 -.01541600  00000+0 -59270-2 0  3063",
                        "2 70606  53.1522 297.5920 0000618  94.8698 225.0599 15.88195765    10"
                    ]
                },
                {
                    "noradId": "70605",
                    "tle": [
                        "1 70605C 25240R   25306.76229167 -.01524000  00000+0 -58780-2 0  3062",
                        "2 70605  53.1525 297.6041 0000693  91.7915 220.0817 15.88113108    17"
                    ]
                },
                {
                    "noradId": "70604",
                    "tle": [
                        "1 70604C 25240Q   25306.76229167 -.01530500  00000+0 -58923-2 0  3062",
                        "2 70604  53.1524 297.6005 0000713 101.4670 212.2079 15.88156932    10"
                    ]
                },
                {
                    "noradId": "70603",
                    "tle": [
                        "1 70603C 25240P   25306.76298611 -.01517000  00000+0 -58616-2 0  3060",
                        "2 70603  53.1526 297.6048 0000660  96.8815 217.1322 15.88068015    16"
                    ]
                },
                {
                    "noradId": "70602",
                    "tle": [
                        "1 70602C 25240N   25306.76159722 -.01506100  00000+0 -58268-2 0  3060",
                        "2 70602  53.1528 297.6164 0000637  98.5469 205.2836 15.88031740    17"
                    ]
                },
                {
                    "noradId": "70601",
                    "tle": [
                        "1 70601C 25240M   25306.75951389 -.01501400  00000+0 -58166-2 0  3062",
                        "2 70601  53.1528 297.6312 0000709  87.3742 202.6851 15.87998495    17"
                    ]
                },
                {
                    "noradId": "70600",
                    "tle": [
                        "1 70600C 25240L   25306.75743056 -.01491800  00000+0 -57871-2 0  3065",
                        "2 70600  53.1527 297.6459 0000769 100.2803 175.7864 15.87961224    10"
                    ]
                },
                {
                    "noradId": "70599",
                    "tle": [
                        "1 70599C 25240K   25306.75743056 -.01481000  00000+0 -57533-2 0  3068",
                        "2 70599  53.1527 297.6507 0000771  95.4549 178.3524 15.87921951    11"
                    ]
                },
                {
                    "noradId": "70598",
                    "tle": [
                        "1 70598C 25240J   25306.76020833 -.01472800  00000+0 -57340-2 0  3063",
                        "2 70598  53.1529 297.6405 0000718  92.7329 195.1602 15.87868758    15"
                    ]
                },
                {
                    "noradId": "70597",
                    "tle": [
                        "1 70597C 25240H   25306.77618056 -.01465100  00000+0 -57266-2 0  3065",
                        "2 70597  53.1530 297.5640 0000530  95.5206 281.8129 15.87780430    10"
                    ]
                },
                {
                    "noradId": "70596",
                    "tle": [
                        "1 70596C 25240G   25306.75951389 -.01456300  00000+0 -56867-2 0  3069",
                        "2 70596  53.1527 297.6525 0000709  89.3241 190.4943 15.87789844    13"
                    ]
                },
                {
                    "noradId": "70595",
                    "tle": [
                        "1 70595C 25240F   25306.75951389 -.01446600  00000+0 -56571-2 0  3062",
                        "2 70595  53.1530 297.6573 0000714  85.9641 191.6506 15.87751048    14"
                    ]
                },
                {
                    "noradId": "70594",
                    "tle": [
                        "1 70594C 25240E   25306.75951389 -.01440700  00000+0 -56437-2 0  3067",
                        "2 70594  53.1534 297.6611 0000709  87.4575 188.4238 15.87709431    12"
                    ]
                },
                {
                    "noradId": "70593",
                    "tle": [
                        "1 70593C 25240D   25306.76020833 -.01431400  00000+0 -56159-2 0  3066",
                        "2 70593  53.1532 297.6617 0000724  90.6570 187.0524 15.87667637    17"
                    ]
                },
                {
                    "noradId": "70592",
                    "tle": [
                        "1 70592C 25240C   25306.76368056 -.01421800  00000+0 -55901-2 0  3064",
                        "2 70592  53.1532 297.6484 0000643  97.5686 198.0066 15.87615288    10"
                    ]
                },
                {
                    "noradId": "70591",
                    "tle": [
                        "1 70591C 25240B   25306.78520833 -.01411500  00000+0 -55746-2 0  3061",
                        "2 70591  53.1532 297.5437 0000655  92.5097 324.1123 15.87512578    14"
                    ]
                },
                {
                    "noradId": "70590",
                    "tle": [
                        "1 70590C 25240A   25306.76020833 -.01405200  00000+0 -55391-2 0  3069",
                        "2 70590  53.1532 297.6746 0000733  90.6808 180.9129 15.87545000    13"
                    ]
                }
            ]
        }
    ],
    "config": {}
}